INTELSAT 10 (IS-10)     
1 26766U 01019A   25216.39845272 -.00000234  00000+0  00000+0 0  9992
2 26766   8.3116  62.4811 0000158  82.9417 290.7412  0.99080272 42441
INTELSAT 902 (IS-902)   
1 26900U 01039A   25213.03933933 -.00000279  00000+0  00000+0 0  9993
2 26900   5.3043  75.7141 0004310  56.5821 141.6651  1.00271492 87481
INTELSAT 904 (IS-904)   
1 27380U 02007A   25216.58257461 -.00000199  00000+0  00000+0 0  9991
2 27380   6.1226  72.9930 0002951  81.6677 340.9536  1.00274056 48592
DIRECTV 5 (TEMPO 1)     
1 27426U 02023A   25216.52351167 -.00000051  00000+0  00000+0 0  9999
2 27426   4.0632  79.3039 0003574  68.8746 243.5023  1.00272792 84941
INTELSAT 905 (IS-905)   
1 27438U 02027A   25216.48204316  .00000099  00000+0  00000+0 0  9995
2 27438   5.9518  73.6281 0002516  50.4186 225.5882  1.00274023 48181
GALAXY 3C (G-3C)        
1 27445U 02030A   25216.52654501 -.00000146  00000+0  00000+0 0  9991
2 27445   2.9173  81.9858 0003029  47.9906 278.0645  1.00272071 43317
INTELSAT 906 (IS-906)   
1 27513U 02041A   25216.55807329  .00000018  00000+0  00000+0 0  9997
2 27513   4.9940  76.8473 0002357  43.4169  98.1403  1.00273023 83852
GALAXY 23 (G-23)        
1 27854U 03034A   25216.55633994  .00000082  00000+0  00000+0 0  9994
2 27854   2.3754  83.5571 0000644 157.5983 328.0349  0.98967536 80561
GALAXY 13 (HORIZONS-1)  
1 27954U 03044A   25216.51553829  .00000141  00000+0  00000+0 0  9996
2 27954   0.5961  88.7559 0001801  38.0172 222.1273  1.00272572 43397
INTELSAT 10-02          
1 28358U 04022A   25216.40226606 -.00000001  00000+0  00000+0 0  9996
2 28358   0.0565 259.4121 0000720 222.1785 335.4748  1.00271341 77382
XM-3 (RHYTHM)           
1 28626U 05008A   25216.52819169 -.00000190  00000+0  00000+0 0  9993
2 28626   0.0152  71.1765 0000314 173.6076 172.3769  1.00271841 39448
DIRECTV 8               
1 28659U 05019A   25216.52169166  .00000011  00000+0  00000+0 0  9997
2 28659   0.0167  76.4489 0003197  62.4400 243.1974  1.00272241 73896
GALAXY 28 (G-28)        
1 28702U 05022A   25216.52775836 -.00000180  00000+0  00000+0 0  9995
2 28702   2.4798  82.9339 0002680  55.4824 276.1945  1.00270981 48801
GALAXY 16 (G-16)        
1 29236U 06023A   25216.52567834 -.00000117  00000+0  00000+0 0  9997
2 29236   0.0572 250.7363 0002899 245.2933 267.5439  1.00272194 69793
DIRECTV 9S              
1 29494U 06043A   25216.52524500 -.00000105  00000+0  00000+0 0  9995
2 29494   1.5986  84.8808 0003261  55.1381 261.2036  1.00272641 48207
GALAXY 17 (G-17)        
1 31307U 07016B   25216.52845169 -.00000199  00000+0  00000+0 0  9992
2 31307   2.1653  84.0089 0001827  61.0350 273.5212  1.00272001 66620
DIRECTV 10              
1 31862U 07032A   25216.29815472 -.00000093  00000+0  00000+0 0  9997
2 31862   0.0359 258.6307 0000376 280.8444 138.1767  1.00271879 42415
INTELSAT 11 (IS-11)     
1 32253U 07044B   25216.56084663  .00000054  00000+0  00000+0 0  9991
2 32253   2.7355  82.6342 0005867  93.1254  57.6836  0.99046754 65318
HORIZONS-2              
1 32388U 07063B   25216.53070503 -.00000245  00000+0  00000+0 0  9999
2 32388   1.7800  84.6647 0002471  68.1900 277.7332  1.00271317 64637
DIRECTV 11              
1 32729U 08013A   25216.47091149 -.00000117  00000+0  00000+0 0  9994
2 32729   0.0040  26.9322 0000064 134.2362 222.4495  1.00274482 42411
GALAXY 18 (G-18)        
1 32951U 08024A   25216.59759610  .00000034  00000+0  00000+0 0  9997
2 32951   0.0170  78.8725 0003166  55.5793 271.0637  1.00272287 42671
INTELSAT 25 (IS-25)     
1 33153U 08034A   25216.08308509 -.00000216  00000+0  00000+0 0  9997
2 33153   1.8858  84.3362 0003959  68.5792 158.3451  1.00269342 62514
GALAXY 19 (G-19)        
1 33376U 08045A   25216.52611168 -.00000130  00000+0  00000+0 0  9998
2 33376   0.0624 259.2303 0002924 231.5047 274.9966  1.00272467 61660
FM-5                    
1 35493U 09034A   25216.52827836 -.00000191  00000+0  00000+0 0  9997
2 35493   0.0372 261.0521 0001172 138.3391  17.9644  1.00270767 43462
INTELSAT 14 (IS-14)     
1 36097U 09064A   25216.46499074 -.00000264  00000+0  00000+0 0  9994
2 36097   0.0136  54.0771 0002919  85.6141 295.9781  1.00271957 57428
INTELSAT 15 (IS-15)     
1 36106U 09067A   25216.56223330 -.00000176  00000+0  00000+0 0  9991
2 36106   0.0155 315.4793 0002594 183.3356 102.1029  1.00268795 38059
DIRECTV 12              
1 36131U 09075A   25216.52498500 -.00000094  00000+0  00000+0 0  9996
2 36131   0.0064 314.1333 0000378 163.5074 281.9711  1.00272563 43370
INTELSAT 16 (IS-16)     
1 36397U 10006A   25216.53018503 -.00000235  00000+0  00000+0 0  9995
2 36397   0.0280 282.0808 0002534 224.8466 281.0706  1.00271434 56472
XM-5                    
1 37185U 10053A   25216.28568274 -.00000013  00000+0  00000+0 0  9994
2 37185   0.0568 262.3058 0000613 157.0441 241.3915  1.00271134 54309
INTELSAT 17 (IS-17)     
1 37238U 10065B   25216.55841995  .00000008  00000+0  00000+0 0  9993
2 37238   0.0282 211.8689 0002570 292.0272  76.4898  1.00270958 50076
INTELSAT 28 (IS-28)     
1 37392U 11016A   25216.46767742 -.00000216  00000+0  00000+0 0  9990
2 37392   0.9828  86.9337 0004649  40.5816 322.4285  1.00271856 50119
INTELSAT 18 (IS-18)     
1 37834U 11056A   25216.08125244  .00000062  00000+0  00000+0 0  9996
2 37834   0.0091  68.4376 0001899  63.5837  30.1153  1.00272241 50636
INTELSAT 22 (IS-22)     
1 38098U 12011A   25216.55963329 -.00000050  00000+0  00000+0 0  9995
2 38098   0.0251  77.9109 0001813  74.6630  74.3496  1.00271867  4010
INTELSAT 19 (IS-19)     
1 38356U 12030A   25216.50687157 -.00000047  00000+0  00000+0 0  9996
2 38356   0.0139  73.4599 0003287  66.8013 161.5350  1.00271785 47273
INTELSAT 20 (IS-20)     
1 38740U 12043A   25216.20202861 -.00000015  00000+0  00000+0 0  9994
2 38740   0.0158  98.6652 0000358  83.7129 271.8485  1.00271212 47574
INTELSAT 21 (IS-21)     
1 38749U 12045A   25216.53382505 -.00000275  00000+0  00000+0 0  9993
2 38749   0.0081  62.3583 0001854  86.3027 298.8586  1.00271100 47349
INTELSAT 23 (IS-23)     
1 38867U 12057A   25216.46343073 -.00000275  00000+0  00000+0 0  9996
2 38867   0.0448 243.9277 0000505 204.7290 338.4540  1.00277556 46772
FM-6                    
1 39360U 13058A   25215.95127095 -.00000007  00000+0  00000+0 0  9997
2 39360   0.0101 114.8063 0002262  54.7956   9.4605  1.00272637 42880
INTELSAT 30 (IS-30)     
1 40271U 14062A   25215.95543096 -.00000141  00000+0  00000+0 0  9998
2 40271   0.0098  50.3686 0001686 355.1525 156.1447  1.00272323  3605
DIRECTV 14              
1 40333U 14078B   25216.14508613 -.00000115  00000+0  00000+0 0  9993
2 40333   0.0159  73.3846 0000558  94.0207  98.5419  1.00270583 38868
DIRECTV 15              
1 40663U 15026A   25216.52489833 -.00000093  00000+0  00000+0 0  9992
2 40663   0.0170  86.0874 0000600 310.9238   2.4186  1.00269775 37282
SKY MEXICO-1            
1 40664U 15026B   25216.52966502 -.00000225  00000+0  00000+0 0  9993
2 40664   0.0190 316.9059 0002346 175.7955 292.5501  1.00270316 37272
INTELSAT 34 (IS-34)     
1 40874U 15039A   25216.09211469 -.00000276  00000+0  00000+0 0  9993
2 40874   0.0111  63.8602 0001716 310.8591 275.8538  1.00271972 36449
INTELSAT 31 (IS-31)     
1 41581U 16035A   25214.17087351 -.00000141  00000+0  00000+0 0  9995
2 41581   0.0117 115.7103 0001479 119.3455  42.3953  1.00271035 33480
INTELSAT 36 (IS-36)     
1 41747U 16053A   25216.55893995 -.00000015  00000+0  00000+0 0  9992
2 41747   0.0093  24.5766 0002318 331.0407 227.4557  1.00271241 32778
INTELSAT 32E (IS-32E)   
1 41945U 17007B   25216.08864278 -.00000259  00000+0  00000+0 0  9992
2 41945   0.0128  86.6506 0000925 301.4538 273.5218  1.00270673 31049
INTELSAT 35E (IS-35E)   
1 42818U 17041A   25216.46707075 -.00000229  00000+0  00000+0 0  9990
2 42818   0.0143  82.9546 0002163  50.8346 313.1230  1.00271900 29638
INTELSAT 37E (IS-37E)   
1 42950U 17059A   25216.39897272 -.00000131  00000+0  00000+0 0  9999
2 42950   0.0066  55.9861 0003320  90.0211 292.8212  1.00271164 28883
AZERSPACE 2 (IS-38)     
1 43632U 18074A   25216.19734859  .00000146  00000+0  00000+0 0  9999
2 43632   0.0097  53.4739 0001533  69.5059 306.1811  1.00270701 25266
HORIZONS-3E             
1 43633U 18074B   25216.43604392 -.00000021  00000+0  00000+0 0  9998
2 43633   0.0470 243.7744 0001274  53.4299 342.0078  1.00271556 25164
AT&T T-16               
1 44333U 19034A   25215.66879216 -.00000105  00000+0  00000+0 0  9999
2 44333   0.0179  86.3500 0000946 306.9699  59.0675  1.00269843 22457
INTELSAT 39 (IS-39)     
1 44476U 19049B   25216.41474612  .00000042  00000+0  00000+0 0  9997
2 44476   0.0175  74.2851 0001025 270.1197 180.0540  1.00271849 21948
GALAXY 30 (G-30)        
1 46114U 20056C   25215.94936427  .00000046  00000+0  00000+0 0  9996
2 46114   0.0176  74.3085 0002433  63.0848  32.1436  1.00273616 18116
GALAXY 33 (G-33)        
1 54026U 22128A   25215.94780427  .00000089  00000+0  00000+0 0  9993
2 54026   0.0189  80.6902 0002020  42.8470  37.4297  1.00272227 10568
GALAXY 34 (G-34)        
1 54027U 22128B   25216.02008458  .00000069  00000+0  00000+0 0  9999
2 54027   0.0206  73.4980 0001430  61.7682  55.7847  1.00271341 10733
GALAXY 31 (G-31)        
1 54243U 22153A   25215.95031760  .00000023  00000+0  00000+0 0  9990
2 54243   0.0221 108.4977 0000951  62.3905   2.9836  1.00272254  3959
GALAXY 32 (G-32)        
1 54244U 22153B   25216.52723834 -.00000165  00000+0  00000+0 0  9993
2 54244   0.0178  44.8546 0001400  24.4172 342.8616  1.00271129  9960
GALAXY 35 (G-35)        
1 54741U 22170A   25216.52689168 -.00000153  00000+0  00000+0 0  9992
2 54741   0.0176 105.9535 0002141  20.9564 282.9985  1.00272360  9732
GALAXY 36 (G-36)        
1 54742U 22170B   25216.52767169 -.00000176  00000+0  00000+0 0  9996
2 54742   0.0102 127.5594 0002698 345.9272 300.8045  1.00271672  9596
GALAXY 37 (G-37)        
1 57493U 23112A   25216.52013164  .00000057  00000+0  00000+0 0  9995
2 57493   0.0125  66.1632 0002082  66.3630 241.0427  1.00272674  7341
